{"type": "FeatureCollection", "features": [ {"type": "Feature", "properties": {"norad_id": 36402, "name": "COSMOS 2460 (732)", "group": "gnss", "lat": 28.021405624090782, "lon": -25.608360881684902, "alt_km": 19128.31193918612, "timestamp": "2025-12-24T03:53:29.890026+00:00", "meta": {"OBJECT_NAME": "COSMOS 2460 (732)", "OBJECT_ID": "2010-007C", "EPOCH": "2025-12-22T12:30:28.820160", "MEAN_MOTION": 2.1310637, "ECCENTRICITY": 0.00025026, "INCLINATION": 65.5243, "RA_OF_ASC_NODE": 320.4432, "ARG_OF_PERICENTER": 283.7046, "MEAN_ANOMALY": 288.4145, "EPHEMERIS_TYPE": 0, "CLASSIFICATION_TYPE": "U", "NORAD_CAT_ID": 36402, "ELEMENT_SET_NO": 999, "REV_AT_EPOCH": 12296, "BSTAR": 0, "MEAN_MOTION_DOT": -3.9e-07, "MEAN_MOTION_DDOT": 0}, "tle": {"line1": "1 36402U 10007C   25356.52116690 -.00000039  00000+0  00000+0 0  9995", "line2": "2 36402  65.5243 320.4432 0002502 283.7046 288.4145  2.13106370122964"}}, "geometry": {"type": "Point", "coordinates": [-25.608360881684902, 28.021405624090782]}}, {"type": "Feature", "properties": {"norad_id": 36585, "name": "GPS BIIF-1  (PRN 25)", "group": "gnss", "lat": 22.020867304172565, "lon": 18.718186913773906, "alt_km": 20160.15434608625, "timestamp": "2025-12-24T03:53:29.890038+00:00", "meta": {"OBJECT_NAME": "GPS BIIF-1  (PRN 25)", "OBJECT_ID": "2010-022A", "EPOCH": "2025-12-23T05:44:03.055200", "MEAN_MOTION": 2.00553739, "ECCENTRICITY": 0.01265225, "INCLINATION": 54.2985, "RA_OF_ASC_NODE": 215.6505, "ARG_OF_PERICENTER": 65.2085, "MEAN_ANOMALY": 139.2805, "EPHEMERIS_TYPE": 0, "CLASSIFICATION_TYPE": "U", "NORAD_CAT_ID": 36585, "ELEMENT_SET_NO": 999, "REV_AT_EPOCH": 11406, "BSTAR": 0, "MEAN_MOTION_DOT": 7.2e-07, "MEAN_MOTION_DDOT": 0}, "tle": {"line1": "1 36585U 10022A   25357.23892425  .00000072  00000+0  00000+0 0  9996", "line2": "2 36585  54.2985 215.6505 0126522  65.2085 139.2805  2.00553739114064"}}, "geometry": {"type": "Point", "coordinates": [18.718186913773906, 22.020867304172565]}}, {"type": "Feature", "properties": {"norad_id": 36828, "name": "BEIDOU-2 IGSO-1 (C06)", "group": "gnss", "lat": 54.013786130654545, "lon": -98.04613171998754, "alt_km": 35889.00560310261, "timestamp": "2025-12-24T03:53:29.890050+00:00", "meta": {"OBJECT_NAME": "BEIDOU-2 IGSO-1 (C06)", "OBJECT_ID": "2010-036A", "EPOCH": "2025-12-20T21:47:26.739168", "MEAN_MOTION": 1.00282395, "ECCENTRICITY": 0.0051798, "INCLINATION": 54.2882, "RA_OF_ASC_NODE": 164.5739, "ARG_OF_PERICENTER": 215.2932, "MEAN_ANOMALY": 144.6604, "EPHEMERIS_TYPE": 0, "CLASSIFICATION_TYPE": "U", "NORAD_CAT_ID": 36828, "ELEMENT_SET_NO": 999, "REV_AT_EPOCH": 5631, "BSTAR": 0, "MEAN_MOTION_DOT": -5.5e-07, "MEAN_MOTION_DDOT": 0}, "tle": {"line1": "1 36828U 10036A   25354.90794837 -.00000055  00000+0  00000+0 0  9992", "line2": "2 36828  54.2882 164.5739 0051798 215.2932 144.6604  1.00282395 56317"}}, "geometry": {"type": "Point", "coordinates": [-98.04613171998754, 54.013786130654545]}}, {"type": "Feature", "properties": {"norad_id": 37210, "name": "BEIDOU-2 G4 (C04)", "group": "gnss", "lat": -2.8441107761385966, "lon": -48.55139246650665, "alt_km": 35756.83091831706, "timestamp": "2025-12-24T03:53:29.890063+00:00", "meta": {"OBJECT_NAME": "BEIDOU-2 G4 (C04)", "OBJECT_ID": "2010-057A", "EPOCH": "2025-12-23T20:02:13.890336", "MEAN_MOTION": 1.00271716, "ECCENTRICITY": 0.0010411, "INCLINATION": 3.2103, "RA_OF_ASC_NODE": 69.8963, "ARG_OF_PERICENTER": 193.6948, "MEAN_ANOMALY": 289.6707, "EPHEMERIS_TYPE": 0, "CLASSIFICATION_TYPE": "U", "NORAD_CAT_ID": 37210, "ELEMENT_SET_NO": 999, "REV_AT_EPOCH": 5553, "BSTAR": 0, "MEAN_MOTION_DOT": -9.2e-07, "MEAN_MOTION_DDOT": 0}, "tle": {"line1": "1 37210U 10057A   25357.83488299 -.00000092  00000+0  00000+0 0  9999", "line2": "2 37210   3.2103  69.8963 0010411 193.6948 289.6707  1.00271716 55534"}}, "geometry": {"type": "Point", "coordinates": [-48.55139246650665, -2.8441107761385966]}}, {"type": "Feature", "properties": {"norad_id": 37256, "name": "BEIDOU-2 IGSO-2 (C07)", "group": "gnss", "lat": -10.5551251055115, "lon": -95.68234327051638, "alt_km": 35914.64127122443, "timestamp": "2025-12-24T03:53:29.890075+00:00", "meta": {"OBJECT_NAME": "BEIDOU-2 IGSO-2 (C07)", "OBJECT_ID": "2010-068A", "EPOCH": "2025-12-23T17:03:51.689952", "MEAN_MOTION": 1.00283101, "ECCENTRICITY": 0.0048564, "INCLINATION": 47.8659, "RA_OF_ASC_NODE": 274.0149, "ARG_OF_PERICENTER": 216.3394, "MEAN_ANOMALY": 326.1369, "EPHEMERIS_TYPE": 0, "CLASSIFICATION_TYPE": "U", "NORAD_CAT_ID": 37256, "ELEMENT_SET_NO": 999, "REV_AT_EPOCH": 5503, "BSTAR": 0, "MEAN_MOTION_DOT": -1.88e-06, "MEAN_MOTION_DDOT": 0}, "tle": {"line1": "1 37256U 10068A   25357.71101493 -.00000188  00000+0  00000+0 0  9992", "line2": "2 37256  47.8659 274.0149 0048564 216.3394 326.1369  1.00283101 55035"}}, "geometry": {"type": "Point", "coordinates": [-95.68234327051638, -10.5551251055115]}}, {"type": "Feature", "properties": {"norad_id": 37384, "name": "BEIDOU-2 IGSO-3 (C08)", "group": "gnss", "lat": -32.06882160044749, "lon": -118.82987969272452, "alt_km": 35661.440454235984, "timestamp": "2025-12-24T03:53:29.890087+00:00", "meta": {"OBJECT_NAME": "BEIDOU-2 IGSO-3 (C08)", "OBJECT_ID": "2011-013A", "EPOCH": "2025-12-23T13:38:13.451136", "MEAN_MOTION": 1.00268394, "ECCENTRICITY": 0.0035347, "INCLINATION": 62.1571, "RA_OF_ASC_NODE": 41.8137, "ARG_OF_PERICENTER": 187.6149, "MEAN_ANOMALY": 174.7745, "EPHEMERIS_TYPE": 0, "CLASSIFICATION_TYPE": "U", "NORAD_CAT_ID": 37384, "ELEMENT_SET_NO": 999, "REV_AT_EPOCH": 5390, "BSTAR": 0, "MEAN_MOTION_DOT": -1.6e-06, "MEAN_MOTION_DDOT": 0}, "tle": {"line1": "1 37384U 11013A   25357.56821124 -.00000160  00000+0  00000+0 0  9998", "line2": "2 37384  62.1571  41.8137 0035347 187.6149 174.7745  1.00268394 53906"}}, "geometry": {"type": "Point", "coordinates": [-118.82987969272452, -32.06882160044749]}}, {"type": "Feature", "properties": {"norad_id": 37605, "name": "GSAT-8 (GAGAN/PRN 127)", "group": "gnss", "lat": 1.414535454212714, "lon": -153.70147735167282, "alt_km": 35769.35063501264, "timestamp": "2025-12-24T03:53:29.890100+00:00", "meta": {"OBJECT_NAME": "GSAT-8 (GAGAN/PRN 127)", "OBJECT_ID": "2011-022A", "EPOCH": "2025-12-23T18:31:50.766240", "MEAN_MOTION": 1.00271275, "ECCENTRICITY": 0.0008919, "INCLINATION": 1.6765, "RA_OF_ASC_NODE": 84.0796, "ARG_OF_PERICENTER": 186.0388, "MEAN_ANOMALY": 155.4684, "EPHEMERIS_TYPE": 0, "CLASSIFICATION_TYPE": "U", "NORAD_CAT_ID": 37605, "ELEMENT_SET_NO": 999, "REV_AT_EPOCH": 5145, "BSTAR": 0, "MEAN_MOTION_DOT": 1.05e-06, "MEAN_MOTION_DDOT": 0}, "tle": {"line1": "1 37605U 11022A   25357.77211535  .00000105  00000+0  00000+0 0  9994", "line2": "2 37605   1.6765  84.0796 0008919 186.0388 155.4684  1.00271275 51456"}}, "geometry": {"type": "Point", "coordinates": [-153.70147735167282, 1.414535454212714]}}, {"type": "Feature", "properties": {"norad_id": 37763, "name": "BEIDOU-2 IGSO-4 (C09)", "group": "gnss", "lat": 52.81930190728833, "lon": -122.866606652389, "alt_km": 36331.70778729477, "timestamp": "2025-12-24T03:53:29.890112+00:00", "meta": {"OBJECT_NAME": "BEIDOU-2 IGSO-4 (C09)", "OBJECT_ID": "2011-038A", "EPOCH": "2025-12-21T10:06:26.864064", "MEAN_MOTION": 1.00280083, "ECCENTRICITY": 0.01491557, "INCLINATION": 54.5854, "RA_OF_ASC_NODE": 167.2693, "ARG_OF_PERICENTER": 230.0944, "MEAN_ANOMALY": 299.1265, "EPHEMERIS_TYPE": 0, "CLASSIFICATION_TYPE": "U", "NORAD_CAT_ID": 37763, "ELEMENT_SET_NO": 999, "REV_AT_EPOCH": 5286, "BSTAR": 0, "MEAN_MOTION_DOT": 5.9e-07, "MEAN_MOTION_DDOT": 0}, "tle": {"line1": "1 37763U 11038A   25355.42114426  .00000059  00000+0  00000+0 0  9995", "line2": "2 37763  54.5854 167.2693 0149155 230.0944 299.1265  1.00280083 52867"}}, "geometry": {"type": "Point", "coordinates": [-122.866606652389, 52.81930190728833]}}, {"type": "Feature", "properties": {"norad_id": 37846, "name": "GSAT0101 (GALILEO-PFM)", "group": "gnss", "lat": 52.634968529295385, "lon": 44.63872456806709, "alt_km": 23219.353062288417, "timestamp": "2025-12-24T03:53:29.890126+00:00", "meta": {"OBJECT_NAME": "GSAT0101 (GALILEO-PFM)", "OBJECT_ID": "2011-060A", "EPOCH": "2025-12-22T06:52:10.962336", "MEAN_MOTION": 1.70475741, "ECCENTRICITY": 0.00032123, "INCLINATION": 57.0506, "RA_OF_ASC_NODE": 346.5611, "ARG_OF_PERICENTER": 320.0005, "MEAN_ANOMALY": 39.9838, "EPHEMERIS_TYPE": 0, "CLASSIFICATION_TYPE": "U", "NORAD_CAT_ID": 37846, "ELEMENT_SET_NO": 999, "REV_AT_EPOCH": 8810, "BSTAR": 0, "MEAN_MOTION_DOT": -6.5e-07, "MEAN_MOTION_DDOT": 0}, "tle": {"line1": "1 37846U 11060A   25356.28623799 -.00000065  00000+0  00000+0 0  9993", "line2": "2 37846  57.0506 346.5611 0003212 320.0005  39.9838  1.70475741 88100"}}, "geometry": {"type": "Point", "coordinates": [44.63872456806709, 52.634968529295385]}}, {"type": "Feature", "properties": {"norad_id": 37847, "name": "GSAT0102 (GALILEO-FM2)", "group": "gnss", "lat": 48.49831316602993, "lon": 119.36107552352216, "alt_km": 23230.935065218033, "timestamp": "2025-12-24T03:53:29.890138+00:00", "meta": {"OBJECT_NAME": "GSAT0102 (GALILEO-FM2)", "OBJECT_ID": "2011-060B", "EPOCH": "2025-12-22T11:58:40.586304", "MEAN_MOTION": 1.70475957, "ECCENTRICITY": 0.0005159, "INCLINATION": 57.0512, "RA_OF_ASC_NODE": 346.5558, "ARG_OF_PERICENTER": 313.0615, "MEAN_ANOMALY": 223.0229, "EPHEMERIS_TYPE": 0, "CLASSIFICATION_TYPE": "U", "NORAD_CAT_ID": 37847, "ELEMENT_SET_NO": 999, "REV_AT_EPOCH": 8811, "BSTAR": 0, "MEAN_MOTION_DOT": -6.5e-07, "MEAN_MOTION_DDOT": 0}, "tle": {"line1": "1 37847U 11060B   25356.49908086 -.00000065  00000+0  00000+0 0  9992", "line2": "2 37847  57.0512 346.5558 0005159 313.0615 223.0229  1.70475957 88119"}}, "geometry": {"type": "Point", "coordinates": [119.36107552352216, 48.49831316602993]}}]}